{"type": "FeatureCollection", "features": [ {"type": "Feature", "properties": {"norad_id": 33905, "name": "COSMOS 2251 DEB", "group": "cosmos-2251-debris", "lat": -28.046273416307425, "lon": 139.16904622962946, "alt_km": 737.8235643252656, "timestamp": "2025-12-16T03:53:27.448157+00:00", "meta": {"OBJECT_NAME": "COSMOS 2251 DEB", "OBJECT_ID": "1993-036DJ", "EPOCH": "2025-12-15T07:23:02.510880", "MEAN_MOTION": 14.35396806, "ECCENTRICITY": 0.0058708, "INCLINATION": 73.8869, "RA_OF_ASC_NODE": 311.891, "ARG_OF_PERICENTER": 200.8989, "MEAN_ANOMALY": 274.5963, "EPHEMERIS_TYPE": 0, "CLASSIFICATION_TYPE": "U", "NORAD_CAT_ID": 33905, "ELEMENT_SET_NO": 999, "REV_AT_EPOCH": 87724, "BSTAR": 0.00055460842, "MEAN_MOTION_DOT": 1.597e-05, "MEAN_MOTION_DDOT": 0}, "tle": {"line1": "1 33905U 93036DJ  25349.30766795  .00001597  00000+0  55461-3 0  9992", "line2": "2 33905  73.8869 311.8910 0058708 200.8989 274.5963 14.35396806877249"}}, "geometry": {"type": "Point", "coordinates": [139.16904622962946, -28.046273416307425]}}, {"type": "Feature", "properties": {"norad_id": 33906, "name": "COSMOS 2251 DEB", "group": "cosmos-2251-debris", "lat": 1.301493020003744, "lon": -44.65625144497954, "alt_km": 680.0549051888465, "timestamp": "2025-12-16T03:53:27.448168+00:00", "meta": {"OBJECT_NAME": "COSMOS 2251 DEB", "OBJECT_ID": "1993-036DK", "EPOCH": "2025-12-15T08:48:30.542688", "MEAN_MOTION": 14.57142382, "ECCENTRICITY": 0.00367351, "INCLINATION": 74.0301, "RA_OF_ASC_NODE": 316.4812, "ARG_OF_PERICENTER": 345.5133, "MEAN_ANOMALY": 166.6431, "EPHEMERIS_TYPE": 0, "CLASSIFICATION_TYPE": "U", "NORAD_CAT_ID": 33906, "ELEMENT_SET_NO": 999, "REV_AT_EPOCH": 88046, "BSTAR": 0.0013274332, "MEAN_MOTION_DOT": 6.017e-05, "MEAN_MOTION_DDOT": 0}, "tle": {"line1": "1 33906U 93036DK  25349.36702017  .00006017  00000+0  13274-2 0  9993", "line2": "2 33906  74.0301 316.4812 0036735 345.5133 166.6431 14.57142382880461"}}, "geometry": {"type": "Point", "coordinates": [-44.65625144497954, 1.301493020003744]}}, {"type": "Feature", "properties": {"norad_id": 33907, "name": "COSMOS 2251 DEB", "group": "cosmos-2251-debris", "lat": 4.930721731479155, "lon": 28.84863577875376, "alt_km": 772.5760200583945, "timestamp": "2025-12-16T03:53:27.448178+00:00", "meta": {"OBJECT_NAME": "COSMOS 2251 DEB", "OBJECT_ID": "1993-036DL", "EPOCH": "2025-12-15T02:50:05.464320", "MEAN_MOTION": 14.30529257, "ECCENTRICITY": 0.01120215, "INCLINATION": 74.0706, "RA_OF_ASC_NODE": 29.3321, "ARG_OF_PERICENTER": 84.1107, "MEAN_ANOMALY": 308.0001, "EPHEMERIS_TYPE": 0, "CLASSIFICATION_TYPE": "U", "NORAD_CAT_ID": 33907, "ELEMENT_SET_NO": 999, "REV_AT_EPOCH": 86614, "BSTAR": 0.0010283551, "MEAN_MOTION_DOT": 2.846e-05, "MEAN_MOTION_DDOT": 0}, "tle": {"line1": "1 33907U 93036DL  25349.11811880  .00002846  00000+0  10284-2 0  9990", "line2": "2 33907  74.0706  29.3321 0112021  84.1107 308.0001 14.30529257866141"}}, "geometry": {"type": "Point", "coordinates": [28.84863577875376, 4.930721731479155]}}, {"type": "Feature", "properties": {"norad_id": 33908, "name": "COSMOS 2251 DEB", "group": "cosmos-2251-debris", "lat": 65.30968776732405, "lon": -19.412984491820097, "alt_km": 923.5698915986177, "timestamp": "2025-12-16T03:53:27.448188+00:00", "meta": {"OBJECT_NAME": "COSMOS 2251 DEB", "OBJECT_ID": "1993-036DM", "EPOCH": "2025-12-15T00:03:36.552960", "MEAN_MOTION": 14.07360241, "ECCENTRICITY": 0.02229189, "INCLINATION": 73.838, "RA_OF_ASC_NODE": 201.7505, "ARG_OF_PERICENTER": 224.8552, "MEAN_ANOMALY": 133.4381, "EPHEMERIS_TYPE": 0, "CLASSIFICATION_TYPE": "U", "NORAD_CAT_ID": 33908, "ELEMENT_SET_NO": 999, "REV_AT_EPOCH": 85505, "BSTAR": 0.0014193738, "MEAN_MOTION_DOT": 2.966e-05, "MEAN_MOTION_DDOT": 0}, "tle": {"line1": "1 33908U 93036DM  25349.00250640  .00002966  00000+0  14194-2 0  9997", "line2": "2 33908  73.8380 201.7505 0222918 224.8552 133.4381 14.07360241855050"}}, "geometry": {"type": "Point", "coordinates": [-19.412984491820097, 65.30968776732405]}}, {"type": "Feature", "properties": {"norad_id": 33911, "name": "COSMOS 2251 DEB", "group": "cosmos-2251-debris", "lat": -8.41386927085091, "lon": 152.77090057000225, "alt_km": 651.1112245987078, "timestamp": "2025-12-16T03:53:27.448198+00:00", "meta": {"OBJECT_NAME": "COSMOS 2251 DEB", "OBJECT_ID": "1993-036DQ", "EPOCH": "2025-12-14T21:34:48.871200", "MEAN_MOTION": 14.74914651, "ECCENTRICITY": 0.00141309, "INCLINATION": 74.0901, "RA_OF_ASC_NODE": 157.6475, "ARG_OF_PERICENTER": 96.3112, "MEAN_ANOMALY": 32.1081, "EPHEMERIS_TYPE": 0, "CLASSIFICATION_TYPE": "U", "NORAD_CAT_ID": 33911, "ELEMENT_SET_NO": 999, "REV_AT_EPOCH": 88676, "BSTAR": 0.0013685388, "MEAN_MOTION_DOT": 9.184e-05, "MEAN_MOTION_DDOT": 0}, "tle": {"line1": "1 33911U 93036DQ  25348.89917675  .00009184  00000+0  13685-2 0  9998", "line2": "2 33911  74.0901 157.6475 0014130  96.3112  32.1081 14.74914651886768"}}, "geometry": {"type": "Point", "coordinates": [152.77090057000225, -8.41386927085091]}}, {"type": "Feature", "properties": {"norad_id": 33912, "name": "COSMOS 2251 DEB", "group": "cosmos-2251-debris", "lat": -42.53497990175037, "lon": 168.05016813781702, "alt_km": 720.8377598067045, "timestamp": "2025-12-16T03:53:27.448208+00:00", "meta": {"OBJECT_NAME": "COSMOS 2251 DEB", "OBJECT_ID": "1993-036DR", "EPOCH": "2025-12-15T07:25:34.697568", "MEAN_MOTION": 14.51910513, "ECCENTRICITY": 0.00114109, "INCLINATION": 74.0334, "RA_OF_ASC_NODE": 184.8844, "ARG_OF_PERICENTER": 263.8562, "MEAN_ANOMALY": 276.329, "EPHEMERIS_TYPE": 0, "CLASSIFICATION_TYPE": "U", "NORAD_CAT_ID": 33912, "ELEMENT_SET_NO": 999, "REV_AT_EPOCH": 88470, "BSTAR": 0.00054791249, "MEAN_MOTION_DOT": 2.184e-05, "MEAN_MOTION_DDOT": 0}, "tle": {"line1": "1 33912U 93036DR  25349.30942937  .00002184  00000+0  54791-3 0  9992", "line2": "2 33912  74.0334 184.8844 0011410 263.8562 276.3290 14.51910513884703"}}, "geometry": {"type": "Point", "coordinates": [168.05016813781702, -42.53497990175037]}}, {"type": "Feature", "properties": {"norad_id": 33913, "name": "COSMOS 2251 DEB", "group": "cosmos-2251-debris", "lat": -0.5634124691198146, "lon": 177.07229339896912, "alt_km": 727.395953998157, "timestamp": "2025-12-16T03:53:27.448219+00:00", "meta": {"OBJECT_NAME": "COSMOS 2251 DEB", "OBJECT_ID": "1993-036DS", "EPOCH": "2025-12-14T22:36:44.358048", "MEAN_MOTION": 14.48495775, "ECCENTRICITY": 0.00481582, "INCLINATION": 74.0328, "RA_OF_ASC_NODE": 179.5185, "ARG_OF_PERICENTER": 281.6897, "MEAN_ANOMALY": 198.3772, "EPHEMERIS_TYPE": 0, "CLASSIFICATION_TYPE": "U", "NORAD_CAT_ID": 33913, "ELEMENT_SET_NO": 999, "REV_AT_EPOCH": 88489, "BSTAR": 0.00047894941, "MEAN_MOTION_DOT": 1.795e-05, "MEAN_MOTION_DDOT": 0}, "tle": {"line1": "1 33913U 93036DS  25348.94218007  .00001795  00000+0  47895-3 0  9990", "line2": "2 33913  74.0328 179.5185 0048158 281.6897 198.3772 14.48495775884896"}}, "geometry": {"type": "Point", "coordinates": [177.07229339896912, -0.5634124691198146]}}, {"type": "Feature", "properties": {"norad_id": 33914, "name": "COSMOS 2251 DEB", "group": "cosmos-2251-debris", "lat": 69.50621360319694, "lon": 139.72219817806803, "alt_km": 765.8057688574072, "timestamp": "2025-12-16T03:53:27.448230+00:00", "meta": {"OBJECT_NAME": "COSMOS 2251 DEB", "OBJECT_ID": "1993-036DT", "EPOCH": "2025-12-15T08:40:08.327136", "MEAN_MOTION": 13.7198658, "ECCENTRICITY": 0.0301021, "INCLINATION": 74.0913, "RA_OF_ASC_NODE": 10.7747, "ARG_OF_PERICENTER": 113.176, "MEAN_ANOMALY": 356.0455, "EPHEMERIS_TYPE": 0, "CLASSIFICATION_TYPE": "U", "NORAD_CAT_ID": 33914, "ELEMENT_SET_NO": 999, "REV_AT_EPOCH": 84117, "BSTAR": 0.00030973982, "MEAN_MOTION_DOT": 3.69e-06, "MEAN_MOTION_DDOT": 0}, "tle": {"line1": "1 33914U 93036DT  25349.36120749  .00000369  00000+0  30974-3 0  9999", "line2": "2 33914  74.0913  10.7747 0301021 113.1760 356.0455 13.71986580841175"}}, "geometry": {"type": "Point", "coordinates": [139.72219817806803, 69.50621360319694]}}, {"type": "Feature", "properties": {"norad_id": 33915, "name": "COSMOS 2251 DEB", "group": "cosmos-2251-debris", "lat": -70.03240486580314, "lon": -24.11308783980439, "alt_km": 852.8421311436559, "timestamp": "2025-12-16T03:53:27.448240+00:00", "meta": {"OBJECT_NAME": "COSMOS 2251 DEB", "OBJECT_ID": "1993-036DU", "EPOCH": "2025-12-15T05:07:54.723648", "MEAN_MOTION": 14.3508887, "ECCENTRICITY": 0.01042813, "INCLINATION": 74.0435, "RA_OF_ASC_NODE": 29.5731, "ARG_OF_PERICENTER": 121.4703, "MEAN_ANOMALY": 303.1171, "EPHEMERIS_TYPE": 0, "CLASSIFICATION_TYPE": "U", "NORAD_CAT_ID": 33915, "ELEMENT_SET_NO": 999, "REV_AT_EPOCH": 87793, "BSTAR": 0.0003789541, "MEAN_MOTION_DOT": 1.124e-05, "MEAN_MOTION_DDOT": 0}, "tle": {"line1": "1 33915U 93036DU  25349.21382782  .00001124  00000+0  37895-3 0  9990", "line2": "2 33915  74.0435  29.5731 0104281 121.4703 303.1171 14.35088870877931"}}, "geometry": {"type": "Point", "coordinates": [-24.11308783980439, -70.03240486580314]}}, {"type": "Feature", "properties": {"norad_id": 33916, "name": "COSMOS 2251 DEB", "group": "cosmos-2251-debris", "lat": -27.837218788092805, "lon": 26.281833521286927, "alt_km": 1141.1655579208455, "timestamp": "2025-12-16T03:53:27.448250+00:00", "meta": {"OBJECT_NAME": "COSMOS 2251 DEB", "OBJECT_ID": "1993-036DV", "EPOCH": "2025-12-15T03:38:06.173376", "MEAN_MOTION": 13.68616969, "ECCENTRICITY": 0.03252483, "INCLINATION": 74.0526, "RA_OF_ASC_NODE": 36.6259, "ARG_OF_PERICENTER": 208.2513, "MEAN_ANOMALY": 182.0111, "EPHEMERIS_TYPE": 0, "CLASSIFICATION_TYPE": "U", "NORAD_CAT_ID": 33916, "ELEMENT_SET_NO": 999, "REV_AT_EPOCH": 83924, "BSTAR": 0.00043917097, "MEAN_MOTION_DOT": 5.23e-06, "MEAN_MOTION_DDOT": 0}, "tle": {"line1": "1 33916U 93036DV  25349.15146034  .00000523  00000+0  43917-3 0  9996", "line2": "2 33916  74.0526  36.6259 0325248 208.2513 182.0111 13.68616969839249"}}, "geometry": {"type": "Point", "coordinates": [26.281833521286927, -27.837218788092805]}}]}